NORAD_CAT_ID,OBJECT_NAME,OBJECT_TYPE,EPOCH,MEAN_MOTION,ECCENTRICITY,INCLINATION,RA_OF_ASC_NODE,ARG_OF_PERICENTER,MEAN_ANOMALY,BSTAR,MEAN_MOTION_DOT,MEAN_MOTION_DDOT,TLE_LINE0,TLE_LINE1,TLE_LINE2,SEMIMAJOR_AXIS,PERIOD,APOGEE,PERIGEE,DECAYED
53165.0,STARLINK-4090,PAYLOAD,2022-08-09 04:00:00,15.73210492,0.0002142,53.2177,295.084,26.309,218.3589,-0.00036988,-0.00052239,0.0,0 STARLINK-4090,1 53165U 22083AK  22221.16667824 -.00052239  00000-0 -36988-3 0  9994,2 53165  53.2177 295.0840 0002142  26.3090 218.3589 15.73210492  4200,6727.865,91.533,351.171,348.289,0.0
53165.0,STARLINK-4090,PAYLOAD,2022-08-09 14:00:01,15.73153618,0.0002426,53.2175,293.0249,22.979,62.807,-0.00027974,-0.00039624,0.0,0 STARLINK-4090,1 53165U 22083AK  22221.58334491 -.00039624  00000-0 -27974-3 0  9999,2 53165  53.2175 293.0249 0002426  22.9790  62.8070 15.73153618  1304,6728.026999999999,91.536,351.525,348.26,0.0
53165.0,STARLINK-4090,PAYLOAD,2022-08-09 22:00:00,15.73118017,0.0002254,53.2174,291.374,19.7492,154.9034,0.00015557,0.00021193,0.0,0 STARLINK-4090,1 53165U 22083AK  22221.91667824  .00021193  00000-0  15557-3 0  9999,2 53165  53.2174 291.3740 0002254  19.7492 154.9034 15.73118017  1309,6728.129,91.538,351.51,348.477,0.0
53165.0,STARLINK-4090,PAYLOAD,2022-08-10 04:00:00,15.73130547,0.0002177999999999,53.2175,290.1363,23.1344,128.1493,0.00057608,0.00080772,0.0,0 STARLINK-4090,1 53165U 22083AK  22222.16667824  .00080772  00000-0  57608-3 0  9998,2 53165  53.2175 290.1363 0002178  23.1344 128.1493 15.73130547  4361,6728.093000000003,91.537,351.4240000000001,348.49300000000005,0.0
53165.0,STARLINK-4090,PAYLOAD,2022-08-10 14:00:01,15.73152847,0.0002551,53.2175,288.0771,21.4802,330.8935,0.00054233,0.00076036,0.0,0 STARLINK-4090,1 53165U 22083AK  22222.58334491  .00076036  00000-0  54233-3 0  9994,2 53165  53.2175 288.0771 0002551  21.4802 330.8935 15.73152847  4422,6728.03,91.536,351.611,348.17800000000005,0.0
53165.0,STARLINK-4090,PAYLOAD,2022-08-10 22:00:00,15.73204622,0.0002417,53.2172,286.4261,22.4864,58.7906,0.00017405,0.00023882,0.0,0 STARLINK-4090,1 53165U 22083AK  22222.91667824  .00023882  00000-0  17405-3 0  9991,2 53165  53.2172 286.4261 0002417  22.4864  58.7906 15.73204622  1302,6727.882,91.533,351.37300000000016,348.121,0.0
53165.0,STARLINK-4090,PAYLOAD,2022-08-11 04:00:00,15.73238584,0.0002437,53.2171,285.1886,27.0603,30.914,-0.00033848,-0.00047941,0.0,0 STARLINK-4090,1 53165U 22083AK  22223.16667824 -.00047941  00000-0 -33848-3 0  9992,2 53165  53.2171 285.1886 0002437  27.0603  30.9140 15.73238584  4516,6727.785,91.531,351.29,348.011,0.0
53165.0,STARLINK-4090,PAYLOAD,2022-08-11 14:00:01,15.73168539,0.0002804,53.2166,283.1292,27.22300000000001,231.9433,0.00057223,0.00080361,0.0,0 STARLINK-4090,1 53165U 22083AK  22223.58334491  .00080361  00000-0  57223-3 0  9993,2 53165  53.2166 283.1292 0002804  27.2230 231.9433 15.73168539  1309,6727.985,91.535,351.736,347.963,0.0
53165.0,STARLINK-4090,PAYLOAD,2022-08-11 20:00:01,15.7323242,0.0002674,53.2162,281.8908,27.7208,208.1303,-1.3892e-06,-8.18e-06,0.0,0 STARLINK-4090,1 53165U 22083AK  22223.83334491 -.00000818  00000-0 -13892-5 0  9998,2 53165  53.2162 281.8908 0002674  27.7208 208.1303 15.73232420  4620,6727.803000000001,91.531,351.467,347.869,0.0
53165.0,STARLINK-4090,PAYLOAD,2022-08-12 14:00:01,15.73226011,0.0002751999999999,53.2163,278.1805,21.1685,144.9002,-3.5454e-05,-5.602e-05,0.0,0 STARLINK-4090,1 53165U 22083AK  22224.58334491 -.00005602  00000-0 -35454-4 0  9994,2 53165  53.2163 278.1805 0002752  21.1685 144.9002 15.73226011  1304,6727.821,91.532,351.538,347.835,0.0
53165.0,STARLINK-4090,PAYLOAD,2022-08-12 20:00:01,15.73211131,0.0002627,53.2161,276.9418,20.4972,122.3632,1.9747e-05,2.151e-05,0.0,0 STARLINK-4090,1 53165U 22083AK  22224.83335648  .00002151  00000-0  19747-4 0  9998,2 53165  53.2161 276.9418 0002627  20.4972 122.3632 15.73211131  4781,6727.863,91.533,351.496,347.961,0.0
53165.0,STARLINK-4090,PAYLOAD,2022-08-12 22:00:01,15.7319483,0.0002576,53.2162,276.529,21.0608,234.0396,0.0003286,0.00045742,0.0,0 STARLINK-4090,1 53165U 22083AK  22224.91668981  .00045742  00000-0  32860-3 0  9999,2 53165  53.2162 276.5290 0002576  21.0608 234.0396 15.73194830  1301,6727.91,91.533,351.5080000000001,348.042,0.0
53165.0,STARLINK-4090,PAYLOAD,2022-08-13 14:00:01,15.73111716,0.0002819999999999,53.2153,273.232,21.4554,51.4508,0.00047793,0.00066743,0.0,0 STARLINK-4090,1 53165U 22083AK  22225.58334491  .00066743  00000-0  47793-3 0  9994,2 53165  53.2153 273.2320 0002820  21.4554  51.4508 15.73111716  1303,6728.147,91.538,351.909,348.115,0.0
53165.0,STARLINK-4090,PAYLOAD,2022-08-13 22:00:00,15.73138768,0.0002608,53.2154,271.5805,22.1071,139.6552,0.00039488,0.00055022,0.0,0 STARLINK-4090,1 53165U 22083AK  22225.91667824  .00055022  00000-0  39488-3 0  9990,2 53165  53.2154 271.5805 0002608  22.1071 139.6552 15.73138768  1303,6728.07,91.537,351.689,348.18,0.0
53165.0,STARLINK-4090,PAYLOAD,2022-08-14 04:00:00,15.73177661,0.0002539,53.2158,270.3412,26.2179,112.1951,0.00028319,0.00039275,0.0,0 STARLINK-4090,1 53165U 22083AK  22226.16667824  .00039275  00000-0  28319-3 0  9991,2 53165  53.2158 270.3412 0002539  26.2179 112.1951 15.73177661  4997,6727.959,91.534,351.532,348.116,0.0
53165.0,STARLINK-4090,PAYLOAD,2022-08-14 14:00:01,15.73191135,0.0002928,53.2154,268.2833,21.3017,318.2983,0.00053686,0.00075385,0.0,0 STARLINK-4090,1 53165U 22083AK  22226.58334491  .00075385  00000-0  53686-3 0  9995,2 53165  53.2154 268.2833 0002928  21.3017 318.2983 15.73191135  1303,6727.92,91.534,351.755,347.816,0.0
53165.0,STARLINK-4090,PAYLOAD,2022-08-14 22:00:00,15.73218351,0.0002623,53.2155,266.6316,20.6409,47.9246,-0.00010159,-0.00014868,0.0,0 STARLINK-4090,1 53165U 22083AK  22226.91667824 -.00014868  00000-0 -10159-3 0  9990,2 53165  53.2155 266.6316 0002623  20.6409  47.9246 15.73218351  1309,6727.843000000003,91.532,351.473,347.9430000000001,0.0
53165.0,STARLINK-4090,PAYLOAD,2022-08-15 04:00:00,15.73207877,0.0002634999999999,53.2155,265.3946,21.1231,24.1432,0.00019437,0.00026756,0.0,0 STARLINK-4090,1 53165U 22083AK  22227.16667824  .00026756  00000-0  19437-3 0  9993,2 53165  53.2155 265.3946 0002635  21.1231  24.1432 15.73207877  5147,6727.873000000001,91.533,351.511,347.965,0.0
53165.0,STARLINK-4090,PAYLOAD,2022-08-15 14:00:01,15.73209941,0.0002866,53.2148,263.3344,16.6253,229.8226,-0.00014031,-0.00020279,0.0,0 STARLINK-4090,1 53165U 22083AK  22227.58334491 -.00020279  00000-0 -14031-3 0  9991,2 53165  53.2148 263.3344 0002866  16.6253 229.8226 15.73209941  5215,6727.8669999999975,91.533,351.66,347.80400000000014,0.0
53165.0,STARLINK-4090,PAYLOAD,2022-08-15 22:00:00,15.73170243,0.0002591,53.2149,261.6826,16.8383,318.5593,0.0005282,0.00074078,0.0,0 STARLINK-4090,1 53165U 22083AK  22227.91667824  .00074078  00000-0  52820-3 0  9999,2 53165  53.2149 261.6826 0002591  16.8383 318.5593 15.73170243  1304,6727.98,91.535,351.588,348.102,0.0
53165.0,STARLINK-4090,PAYLOAD,2022-08-16 06:00:02,15.73265079,0.0002674,53.2153,260.0339,16.11,48.2691,-0.00068209,-0.00095555,0.0,0 STARLINK-4090,1 53165U 22083AK  22228.25002315 -.00095555  00000-0 -68209-3 0  9998,2 53165  53.2153 260.0339 0002674  16.1100  48.2691 15.73265079  5316,6727.71,91.529,351.374,347.776,0.0
53165.0,STARLINK-4090,PAYLOAD,2022-08-16 14:00:01,15.73171773,0.0002862,53.2152,258.3854,13.1279,140.1606,0.00051885,0.00072751,0.0,0 STARLINK-4090,1 53165U 22083AK  22228.58334491  .00072751  00000-0  51885-3 0  9990,2 53165  53.2152 258.3854 0002862  13.1279 140.1606 15.73171773  1300,6727.976,91.535,351.766,347.915,0.0
53165.0,STARLINK-4090,PAYLOAD,2022-08-16 22:00:00,15.73219952,0.0002671,53.2154,256.7337,15.9414,226.2801,2.0512e-05,2.26e-05,0.0,0 STARLINK-4090,1 53165U 22083AK  22228.91667824  .00002260  00000-0  20512-4 0  9998,2 53165  53.2154 256.7337 0002671  15.9414 226.2801 15.73219952  1304,6727.8380000000025,91.532,351.5,347.906,0.0
53165.0,STARLINK-4090,PAYLOAD,2022-08-17 12:00:00,15.73195559,0.0003006,53.215,253.8493,19.3982,288.4725,0.00012712,0.00017255,0.0,0 STARLINK-4090,1 53165U 22083AK  22229.50001157  .00017255  00000-0  12712-3 0  9997,2 53165  53.2150 253.8493 0003006  19.3982 288.4725 15.73195559  5510,6727.908,91.533,351.795,347.75,0.0
53165.0,STARLINK-4090,PAYLOAD,2022-08-17 14:00:01,15.73221834,0.0003013999999999,53.2146,253.4366,18.4185,41.678,-0.00028883,-0.00041009,0.0,0 STARLINK-4090,1 53165U 22083AK  22229.58334491 -.00041009  00000-0 -28883-3 0  9997,2 53165  53.2146 253.4366 0003014  18.4185  41.6780 15.73221834  1303,6727.833000000001,91.532,351.726,347.67,0.0
53165.0,STARLINK-4090,PAYLOAD,2022-08-17 16:00:00,15.73238578,0.000292,53.2146,253.0237,18.6297,153.6976,-0.00066381,-0.00092939,0.0,0 STARLINK-4090,1 53165U 22083AK  22229.66667824 -.00092939  00000-0 -66381-3 0  9998,2 53165  53.2146 253.0237 0002920  18.6297 153.6976 15.73238578  5541,6727.785,91.531,351.615,347.686,0.0
53165.0,STARLINK-4090,PAYLOAD,2022-08-18 06:00:02,15.73226491,0.0002793,53.2151,250.1368,19.5577,218.4661,0.00022134,0.00030595,0.0,0 STARLINK-4090,1 53165U 22083AK  22230.25002315  .00030595  00000-0  22134-3 0  9999,2 53165  53.2151 250.1368 0002793  19.5577 218.4661 15.73226491  5631,6727.82,91.532,351.564,347.806,0.0
53165.0,STARLINK-4090,PAYLOAD,2022-08-18 14:00:01,15.73277779,0.0002903,53.2151,248.4879,14.4838,312.4406,-0.00033833,-0.00048004,0.0,0 STARLINK-4090,1 53165U 22083AK  22230.58334491 -.00048004  00000-0 -33833-3 0  9992,2 53165  53.2151 248.4879 0002903  14.4838 312.4406 15.73277779  1302,6727.6730000000025,91.529,351.491,347.585,0.0
53165.0,STARLINK-4090,PAYLOAD,2022-08-18 22:00:00,15.73207026,0.0002587,53.2152,246.8362,11.929,44.0089,0.00010615,0.00014307,0.0,0 STARLINK-4090,1 53165U 22083AK  22230.91667824  .00014307  00000-0  10615-3 0  9998,2 53165  53.2152 246.8362 0002587  11.9290  44.0089 15.73207026  5738,6727.875,91.533,351.481,348.0,0.0
